STARLINK-1008
1 44714U 19074B   26228.02525345  .00060156  00000+0  72313-3 0  9993
2 44714  53.1495 140.1747 0006339  54.1995 305.9607 15.60286289373524
STARLINK-1012
1 44718U 19074F   26228.21380317  .00030346  00000+0  36436-3 0  9990
2 44718  53.1511 139.5523 0002345  90.5546 269.5736 15.60651126373546
STARLINK-1017
1 44723U 19074L   26228.19518856  .00029205  00000+0  81458-3 0  9990
2 44723  53.0443 148.1963 0000983 106.4050 253.7060 15.36540851373395
STARLINK-1020
1 44725U 19074N   26228.19130829  .00057371  00000+0  58799-3 0  9999
2 44725  53.1513 161.0455 0005799  52.7685 307.3859 15.64416578373226
STARLINK-1036
1 44741U 19074AE  26227.95371602  .00043164  00000+0  20546-3 0  9990
2 44741  53.0386 121.7917 0004003 124.8064 235.3335 15.82453595373731
STARLINK-1039
1 44744U 19074AH  26227.64599553  .00017478  00000+0  54944-3 0  9994
2 44744  53.0584 197.7493 0002771  20.8619 339.2494 15.33083125372651
STARLINK-1042
1 44747U 19074AL  26227.92110385  .00049827  00000+0  64988-3 0  9992
2 44747  53.0406  46.2949 0000777 302.3660  57.7276 15.58228621374829
STARLINK-1043
1 44748U 19074AM  26228.05074543  .00040436  00000+0  33416-3 0  9992
2 44748  53.0466 136.7470 0003817  93.3217 266.8236 15.69905525373547
STARLINK-1046
1 44751U 19074AQ  26228.03271904  .00028368  00000+0  25663-3 0  9999
2 44751  53.0444 161.4706 0001797  98.4951 261.6268 15.67884112373195
STARLINK-1047
1 44752U 19074AR  26227.93998894  .00005691  00000+0  16278-3 0  9998
2 44752  53.0665 119.9027 0001352  31.0702 329.0380 15.37501813373790
STARLINK-1048
1 44753U 19074AS  26228.06319515  .00054438  00000+0  36661-3 0  9992
2 44753  53.0411 106.0900 0001038 251.3460 108.7445 15.74623597373964
STARLINK-1063
1 44768U 19074BH  26228.14514654  .00062050  00000+0  84402-3 0  9993
2 44768  53.1511 181.1262 0005952  54.2250 305.9315 15.56996669372973
STARLINK-1067
1 44771U 19074BL  26228.11276757  .00188345  24628-4  52152-3 0  9993
2 44771  53.0361 130.9057 0004516 107.6802 252.4718 15.93476809373620
STARLINK-1068
1 44772U 19074BM  26228.17689965  .00096018  00000+0  33778-3 0  9990
2 44772  53.0346 105.6630 0004001 118.7064 241.4363 15.88412785373971
STARLINK-1114
1 44927U 20001P   26228.20259716  .00073299  00000+0  43229-3 0  9993
2 44927  53.0367 267.1220 0006725  20.6343 339.4947 15.77503883365066
STARLINK-1123
1 44930U 20001S   26228.21562404  .00030324  00000+0  28888-3 0  9995
2 44930  53.1385 299.6726 0001544 170.2140 189.8906 15.66566436364638
STARLINK-1094
1 44941U 20001AD  26228.16488068  .00058732  00000+0  61519-3 0  9995
2 44941  53.1460 277.0800 0002459 340.2661  19.8259 15.63868922364950
STARLINK-1122
1 44949U 20001AM  26227.41745568  .00052610  00000+0  56731-3 0  9990
2 44949  53.1492 281.4539 0001883 345.0014  15.0945 15.63175290364821
STARLINK-1080
1 44961U 20001AZ  26228.00977139  .00053586  00000+0  35291-3 0  9992
2 44961  53.0421 229.1065 0004857  29.8170 330.3124 15.75133335365586
STARLINK-1090
1 44968U 20001BG  26228.16093019  .00048249  00000+0  62018-3 0  9999
2 44968  53.1440 267.5577 0001946   2.2072 357.8949 15.58632037365089
STARLINK-1132
1 45044U 20006A   26228.23498531  .00039261  00000+0  32547-3 0  9994
2 45044  53.1468 204.2863 0002846  73.4974 286.6356 15.69849604361755
STARLINK-1131
1 45047U 20006D   26228.06828275  .00069627  00000+0  73915-3 0  9993
2 45047  53.1503 240.2805 0005079  35.2271 324.9079 15.63446914361233
STARLINK-1134
1 45048U 20006E   26227.89500831  .00036200  00000+0  35332-3 0  9991
2 45048  53.0203 187.4725 0005821 358.8167   1.2832 15.65850413361929
STARLINK-1156
1 45054U 20006L   26227.36138415  .00036587  00000+0  89233-3 0  9992
2 45054  53.1543 259.2030 0002038   5.1580 354.9446 15.40557510360900
STARLINK-1166
1 45060U 20006S   26228.25002315 -.00045911  00000+0 -31261-3 0  9998
2 45060  53.0397 216.6994 0002002 108.1802  71.5595 15.74054989  5970
STARLINK-1169
1 45061U 20006T   26228.07369950  .00033769  00000+0  71793-3 0  9990
2 45061  53.1513 252.5878 0001588  55.2890 304.8267 15.44703830361065
STARLINK-1171
1 45062U 20006U   26228.04753282  .00111544  00000+0  43358-3 0  9997
2 45062  53.0335 177.0110 0005197  72.7212 287.4379 15.86317771362083
STARLINK-1133
1 45064U 20006W   26227.33684507  .00021028  00000+0  52094-3 0  9997
2 45064  53.1536 236.1384 0001619  23.2090 336.8988 15.40387988361237
STARLINK-1167
1 45071U 20006AD  26227.28367318  .00026094  00000+0  58289-3 0  9997
2 45071  53.1528 234.1263 0003693  64.2494 295.8893 15.43371219361251
STARLINK-1168
1 45072U 20006AE  26227.29612223  .00025544  00000+0  61774-3 0  9999
2 45072  53.1538 236.3051 0001957  21.1760 338.9326 15.41000880361229
STARLINK-1172
1 45074U 20006AG  26228.03670475  .00034124  00000+0  73093-3 0  9998
2 45074  53.1499 229.3676 0003035  55.4600 304.6693 15.44475631361381
STARLINK-1153
1 45080U 20006AN  26227.32934391  .00023607  00000+0  52747-3 0  9993
2 45080  53.1540 233.8081 0003619  77.2370 282.9041 15.43422882361260
STARLINK-1185
1 45087U 20006AV  26228.21873693  .00042788  00000+0  66463-3 0  9997
2 45087  53.1541 205.0978 0003038  33.1779 326.9422 15.53552974361745
STARLINK-1183
1 45088U 20006AW  26227.30130062  .00023547  00000+0  58448-3 0  9999
2 45088  53.1545 221.1781 0002258  20.0132 340.0962 15.40257399361433
STARLINK-1152
1 45096U 20006BE  26228.21344501  .00027003  00000+0  37375-3 0  9991
2 45096  53.0292 163.2101 0005367  49.8726 310.2754 15.56923931362296
STARLINK-1184
1 45098U 20006BG  26228.03966830  .00009130  00000+0  47176-3 0  9999
2 45098  53.0494 241.7650 0002103 309.4974  50.5833 15.16983210361178
STARLINK-1193
1 45100U 20006BJ  26228.21408608  .00053293  00000+0  34767-3 0  9998
2 45100  53.0432 165.7617 0004690 125.1885 234.9573 15.75354465362257
STARLINK-1202
1 45183U 20012F   26227.84062096  .00033101  00000+0  81592-3 0  9995
2 45183  53.1544  15.4825 0002066  93.7319 266.3922 15.40283725359381
STARLINK-1216
1 45185U 20012H   26228.12017500  .00011823  00000+0  26386-3 0  9996
2 45185  53.1567  13.0496 0000734  28.2417 331.8629 15.44021086359384
STARLINK-1225
1 45187U 20012K   26227.79992487  .00032060  00000+0  78760-3 0  9995
2 45187  53.1547  15.7967 0002423 121.3914 238.7328 15.40401701359361
STARLINK-1230
1 45189U 20012M   26227.75108906  .00024347  00000+0  59976-3 0  9995
2 45189  53.1544  16.1474 0001720 120.7115 239.4060 15.40469974356581
STARLINK-1234
1 45190U 20012N   26228.14700449  .00151715  20233-4  36917-3 0  9996
2 45190  53.0274 249.6943 0009701  34.1897 325.9753 15.95894669361026
STARLINK-1269
1 45197U 20012V   26228.00559582  .00029935  00000+0  73621-3 0  9994
2 45197  53.1556  14.7896 0000602 154.4107 205.6928 15.40404731359376
STARLINK-1154
1 45198U 20012W   26227.62568936  .00032666  00000+0  27853-3 0  9996
2 45198  53.0402 316.3260 0000386 331.2407  28.8588 15.69256899360098
STARLINK-1199
1 45201U 20012Z   26227.78121690  .00036133  00000+0  88025-3 0  9991
2 45201  53.1559   0.1102 0001976 145.3900 214.7235 15.40598403359584
STARLINK-1209
1 45206U 20012AE  26227.84863790  .00067914  00000+0  37232-3 0  9992
2 45206  53.0302 271.7885 0006832  16.1247 343.9990 15.79162752359841
STARLINK-1231
1 45212U 20012AL  26228.05333731  .00026651  00000+0  85956-3 0  9999
2 45212  53.0372 357.1019 0001760 261.7627  98.3173 15.31992756359575
STARLINK-1271
1 45217U 20012AR  26228.09309141  .00032157  00000+0  77621-3 0  9994
2 45217  53.1563 358.6533 0001928 126.1740 233.9444 15.40934617359633
STARLINK-1191
1 45222U 20012AW  26227.68310939  .00029437  00000+0  60897-3 0  9995
2 45222  53.1526 331.4255 0002862   8.8137 351.2920 15.45575951359980
STARLINK-1212
1 45223U 20012AX  26228.15122792  .00066007  00000+0  38735-3 0  9997
2 45223  53.0378 286.2811 0006110   8.7737 351.3388 15.77662952360620
STARLINK-1215
1 45225U 20012AZ  26227.69994819  .00021397  00000+0  52237-3 0  9990
2 45225  53.1551 334.7380 0001100  88.8340 271.2792 15.40823845359895
STARLINK-1221
1 45227U 20012BB  26228.00319931  .00036607  00000+0  67888-3 0  9992
2 45227  53.0620 231.4090 0002960  82.9739 277.1605 15.48634623361338
STARLINK-1222
1 45228U 20012BC  26227.44742842  .00025129  00000+0  29097-3 0  9998
2 45228  53.0503 295.4468 0003140  22.8924 337.2228 15.61702555360320
STARLINK-1226
1 45229U 20012BD  26227.68265188  .00030854  00000+0  51942-3 0  9993
2 45229  53.1522 326.0566 0001068  55.3971 304.7140 15.51471830359950
STARLINK-1227
1 45230U 20012BE  26227.56053400  .00036885  00000+0  61797-3 0  9993
2 45230  53.1502 326.6996 0001686  36.4129 323.6995 15.51516524360055
STARLINK-1246
1 45235U 20012BK  26227.80876662  .00030494  00000+0  74197-3 0  9996
2 45235  53.1559  15.2507 0003094  77.9029 282.2323 15.40717314359405
STARLINK-1270
1 45237U 20012BM  26228.17475197  .00052085  00000+0  32579-3 0  9995
2 45237  53.0368 288.3867 0006631 357.3659   2.7324 15.76312165360592
STARLINK-1279
1 45360U 20019A   26228.25002315  .00313519  52372-4  60795-3 0  9993
2 45360  53.0277  23.0116 0006543 303.2567 141.2772 15.99806394  5970
STARLINK-1301
1 45361U 20019B   26227.92129873  .00333931  60032-4  54873-3 0  9998
2 45361  53.0261  26.0848 0006203 299.5144  60.5268 16.02641752355768
STARLINK-1262
1 45366U 20019G   26228.02210194  .00025514  00000+0  64626-3 0  9998
2 45366  53.1512 141.2063 0003707  58.7834 301.3534 15.39589329354209
STARLINK-1273
1 45367U 20019H   26227.92495762  .00033463  00000+0  32668-3 0  9996
2 45367  53.0385 104.0866 0002633  96.0129 264.1186 15.65899338354688
STARLINK-1276
1 45368U 20019J   26228.10594841  .00017396  00000+0  87742-3 0  9996
2 45368  53.0727 162.8050 0002214  69.5128 290.6104 15.17235389353887
STARLINK-1277
1 45369U 20019K   26228.01959450  .00050551  00000+0  34226-3 0  9997
2 45369  53.0380  93.4039 0002401 133.9347 226.1870 15.74528586354844
STARLINK-1281
1 45370U 20019L   26228.06038850  .00029206  00000+0  71651-3 0  9992
2 45370  53.1529 140.2563 0002495  34.8187 325.2981 15.40491668354228
STARLINK-1300
1 45374U 20019Q   26227.97819289  .00052730  00000+0  12452-2 0  9999
2 45374  53.1541 140.2348 0002344  56.2236 303.8993 15.41367397354219
STARLINK-1302
1 45375U 20019R   26227.86127868  .00050322  00000+0  34332-3 0  9990
2 45375  53.0415  89.9908 0000662 317.9752  42.1215 15.74355405354876
STARLINK-1304
1 45376U 20019S   26228.05008267  .00043760  00000+0  35826-3 0  9991
2 45376  53.0377  92.4993 0000786  74.3140 285.7963 15.70101890354855
STARLINK-1305
1 45377U 20019T   26227.94679211  .00094856  00000+0  42080-3 0  9994
2 45377  53.0338  66.4511 0000430  82.8706 277.2365 15.83642866355218
STARLINK-1319
1 45379U 20019V   26228.07409262  .00123690  16949-4  35238-3 0  9998
2 45379  53.0304  53.4381 0002752 266.9427  93.1284 15.93127831355405
STARLINK-1266
1 45383U 20019Z   26227.95713436  .00047048  00000+0  34924-3 0  9999
2 45383  53.0412  76.6793 0003414 120.8741 239.2613 15.72404527355065
STARLINK-1267
1 45384U 20019AA  26227.94643104  .00072216  00000+0  41092-3 0  9992
2 45384  53.0403  65.9881 0001387 199.4694 160.6273 15.78339530355214
STARLINK-1272
1 45386U 20019AC  26228.18161495  .00106224  00000+0  43469-3 0  9996
2 45386  53.0353  40.8825 0002725 276.6371  83.4342 15.85287771355583
STARLINK-1274
1 45387U 20019AD  26227.79424599  .00108070  00000+0  67541-3 0  9998
2 45387  53.0147  46.6314 0002013  13.4708 346.6364 15.76058918355467
STARLINK-1280
1 45388U 20019AE  26227.96585380  .01048645  11823-4  51829-3 0  9998
2 45388  53.0222  41.1748 0007817 296.5182  63.5054 16.20195708355549
STARLINK-1283
1 45389U 20019AF  26227.96601124  .00088695  00000+0  43771-3 0  9999
2 45389  53.0327  42.0113 0000762 104.9066 255.2040 15.81389233355557
STARLINK-1284
1 45390U 20019AG  26227.81728711  .00069701  00000+0  38725-3 0  9997
2 45390  53.0395  67.6875 0003245 197.1901 162.9010 15.78880802355176
STARLINK-1297
1 45395U 20019AM  26228.04338752  .00098104  00000+0  44375-3 0  9997
2 45395  53.0368  64.3637 0002107 205.0051 155.0869 15.83216130354427
STARLINK-1307
1 45397U 20019AP  26227.98395832  .00032153  00000+0  37578-3 0  9992
2 45397  53.0495  79.6089 0001949  88.3520 271.7716 15.61323026354859
STARLINK-1255
1 45399U 20019AR  26227.77353649  .00048875  00000+0  36380-3 0  9999
2 45399  53.0313  43.3123 0001572   3.3346 356.7681 15.72326510355323
STARLINK-1260
1 45404U 20019AW  26227.89074479  .00033157  00000+0  72138-3 0  9998
2 45404  53.1509 102.1360 0000844  63.9774 296.1319 15.44031256354450
STARLINK-1263
1 45405U 20019AX  26228.06238595  .00030245  00000+0  73306-3 0  9993
2 45405  53.1531 104.0938 0003120  58.2726 301.8583 15.40839386354444
STARLINK-1265
1 45406U 20019AY  26227.92814904  .00034459  00000+0  73294-3 0  9999
2 45406  53.1510 101.7280 0002805 117.0389 243.0905 15.44678793354468
STARLINK-1278
1 45408U 20019BA  26227.95396345  .00102779  00000+0  43424-3 0  9991
2 45408  53.0345  63.1151 0001802 223.2370 136.8511 15.84637127354977
STARLINK-1296
1 45412U 20019BE  26228.02658095  .00036317  00000+0  77270-3 0  9998
2 45412  53.1512 100.8872 0001404  89.4590 270.6578 15.44646003354487
STARLINK-1309
1 45414U 20019BG  26227.86201676  .00150187  00000+0  71348-3 0  9992
2 45414  53.0546  58.5880 0003079 207.9430 152.1427 15.81983687355013
STARLINK-1316
1 45415U 20019BH  26227.91636666  .00033907  00000+0  71396-3 0  9993
2 45415  53.1520 101.1816 0000999  75.1589 284.9528 15.44986092354498
STARLINK-1286
1 45417U 20019BK  26227.94892446  .00065839  00000+0  48139-3 0  9996
2 45417  53.0414  73.5426 0004115 135.2285 224.9065 15.72617821355106
STARLINK-1308
1 45419U 20019BM  26228.00004630 -.00036646  00000+0 -26685-3 0  9994
2 45419  53.0422  92.2259 0002822 231.5026 143.3033 15.72387734  5989
STARLINK-1329
1 45531U 20025A   26227.89759579  .00018133  00000+0  80047-4 0  9993
2 45531  53.0373  11.6727 0001143 341.0486  19.0494 15.84612450350494
STARLINK-1338
1 45532U 20025B   26227.71384816  .00067657  00000+0  35647-3 0  9993
2 45532  53.0411  21.2509 0001679 251.9160 108.1678 15.80068339350340
STARLINK-1350
1 45535U 20025E   26227.69766852  .00005215  00000+0  13257-3 0  9992
2 45535  53.0721   3.7729 0000319 104.2487 255.8553 15.41362647350638
STARLINK-1362
1 45538U 20025H   26227.96649225  .00046398  00000+0  10324-2 0  9997
2 45538  53.1534  74.1291 0004390  81.9437 278.2068 15.43200464349660